{"fetched_at":"2026-07-06T18:35:16.154Z","source":"https://celestrak.org/NORAD/elements/gp.php?GROUP=planet&FORMAT=JSON","constellation":"superdove","records":[{"OBJECT_NAME":"FLOCK 4H-15","OBJECT_ID":"2025-276BE","EPOCH":"2026-07-06T03:27:14.843520","CLASSIFICATION_TYPE":"U","MEAN_MOTION":15.19805588,"ECCENTRICITY":0.00030067,"INCLINATION":97.4209,"RA_OF_ASC_NODE":260.321,"ARG_OF_PERICENTER":324.7832,"MEAN_ANOMALY":35.3204,"EPHEMERIS_TYPE":0,"NORAD_CAT_ID":66718,"ELEMENT_SET_NO":999,"REV_AT_EPOCH":3329,"BSTAR":0.00036015988,"MEAN_MOTION_DOT":0.00007649,"MEAN_MOTION_DDOT":0},{"OBJECT_NAME":"FLOCK 4H-16","OBJECT_ID":"2025-276BF","EPOCH":"2026-07-06T04:25:01.704864","CLASSIFICATION_TYPE":"U","MEAN_MOTION":15.20071285,"ECCENTRICITY":0.00027839,"INCLINATION":97.4224,"RA_OF_ASC_NODE":260.4654,"ARG_OF_PERICENTER":307.0412,"MEAN_ANOMALY":53.0568,"EPHEMERIS_TYPE":0,"NORAD_CAT_ID":66719,"ELEMENT_SET_NO":999,"REV_AT_EPOCH":3330,"BSTAR":0.00034469716,"MEAN_MOTION_DOT":0.00007374,"MEAN_MOTION_DDOT":0},{"OBJECT_NAME":"FLOCK 4H-18","OBJECT_ID":"2025-276BH","EPOCH":"2026-07-06T04:33:24.744672","CLASSIFICATION_TYPE":"U","MEAN_MOTION":15.20014079,"ECCENTRICITY":0.00027627,"INCLINATION":97.4166,"RA_OF_ASC_NODE":260.2924,"ARG_OF_PERICENTER":342.519,"MEAN_ANOMALY":17.595,"EPHEMERIS_TYPE":0,"NORAD_CAT_ID":66721,"ELEMENT_SET_NO":999,"REV_AT_EPOCH":3330,"BSTAR":0.0003433408,"MEAN_MOTION_DOT":0.00007333,"MEAN_MOTION_DDOT":0},{"OBJECT_NAME":"FLOCK 4H-19","OBJECT_ID":"2025-276BJ","EPOCH":"2026-07-06T04:42:33.850368","CLASSIFICATION_TYPE":"U","MEAN_MOTION":15.21218839,"ECCENTRICITY":0.00016141,"INCLINATION":97.4167,"RA_OF_ASC_NODE":260.745,"ARG_OF_PERICENTER":165.1309,"MEAN_ANOMALY":194.9974,"EPHEMERIS_TYPE":0,"NORAD_CAT_ID":66722,"ELEMENT_SET_NO":999,"REV_AT_EPOCH":3262,"BSTAR":0.00026005224,"MEAN_MOTION_DOT":0.00005735,"MEAN_MOTION_DDOT":0},{"OBJECT_NAME":"FLOCK 4H-20","OBJECT_ID":"2025-276BK","EPOCH":"2026-07-06T03:12:16.073568","CLASSIFICATION_TYPE":"U","MEAN_MOTION":15.21369082,"ECCENTRICITY":0.00019586,"INCLINATION":97.4207,"RA_OF_ASC_NODE":260.783,"ARG_OF_PERICENTER":198.8757,"MEAN_ANOMALY":161.2406,"EPHEMERIS_TYPE":0,"NORAD_CAT_ID":66723,"ELEMENT_SET_NO":999,"REV_AT_EPOCH":3257,"BSTAR":0.00032730026,"MEAN_MOTION_DOT":0.00007269,"MEAN_MOTION_DDOT":0},{"OBJECT_NAME":"FLOCK 4H-21","OBJECT_ID":"2025-276BL","EPOCH":"2026-07-06T03:53:52.931616","CLASSIFICATION_TYPE":"U","MEAN_MOTION":15.20953482,"ECCENTRICITY":0.00017423,"INCLINATION":97.4171,"RA_OF_ASC_NODE":260.6447,"ARG_OF_PERICENTER":198.5419,"MEAN_ANOMALY":161.5753,"EPHEMERIS_TYPE":0,"NORAD_CAT_ID":66724,"ELEMENT_SET_NO":999,"REV_AT_EPOCH":3257,"BSTAR":0.00032446888,"MEAN_MOTION_DOT":0.00007118,"MEAN_MOTION_DDOT":0},{"OBJECT_NAME":"FLOCK 4H-22","OBJECT_ID":"2025-276BM","EPOCH":"2026-07-06T04:53:40.168896","CLASSIFICATION_TYPE":"U","MEAN_MOTION":15.20439701,"ECCENTRICITY":0.00016725,"INCLINATION":97.4163,"RA_OF_ASC_NODE":260.4045,"ARG_OF_PERICENTER":356.5078,"MEAN_ANOMALY":3.6146,"EPHEMERIS_TYPE":0,"NORAD_CAT_ID":66725,"ELEMENT_SET_NO":999,"REV_AT_EPOCH":3331,"BSTAR":0.00037352304,"MEAN_MOTION_DOT":0.00008083,"MEAN_MOTION_DDOT":0},{"OBJECT_NAME":"FLOCK 4H-23","OBJECT_ID":"2025-276BN","EPOCH":"2026-07-06T04:32:16.557792","CLASSIFICATION_TYPE":"U","MEAN_MOTION":15.19992953,"ECCENTRICITY":0.00028198,"INCLINATION":97.4227,"RA_OF_ASC_NODE":260.472,"ARG_OF_PERICENTER":294.8017,"MEAN_ANOMALY":65.2925,"EPHEMERIS_TYPE":0,"NORAD_CAT_ID":66726,"ELEMENT_SET_NO":999,"REV_AT_EPOCH":3330,"BSTAR":0.00032436655,"MEAN_MOTION_DOT":0.00006919,"MEAN_MOTION_DDOT":0},{"OBJECT_NAME":"FLOCK 4H-24","OBJECT_ID":"2025-276BP","EPOCH":"2026-07-06T04:11:17.627712","CLASSIFICATION_TYPE":"U","MEAN_MOTION":15.2009895,"ECCENTRICITY":0.00026009,"INCLINATION":97.4227,"RA_OF_ASC_NODE":260.4858,"ARG_OF_PERICENTER":319.0585,"MEAN_ANOMALY":41.0455,"EPHEMERIS_TYPE":0,"NORAD_CAT_ID":66727,"ELEMENT_SET_NO":999,"REV_AT_EPOCH":3330,"BSTAR":0.00033570176,"MEAN_MOTION_DOT":0.00007185,"MEAN_MOTION_DDOT":0},{"OBJECT_NAME":"FLOCK 4H-25","OBJECT_ID":"2025-276BQ","EPOCH":"2026-07-05T04:38:36.021408","CLASSIFICATION_TYPE":"U","MEAN_MOTION":15.20860103,"ECCENTRICITY":0.00014,"INCLINATION":97.4185,"RA_OF_ASC_NODE":259.6819,"ARG_OF_PERICENTER":129.0485,"MEAN_ANOMALY":231.0875,"EPHEMERIS_TYPE":0,"NORAD_CAT_ID":66728,"ELEMENT_SET_NO":999,"REV_AT_EPOCH":3245,"BSTAR":0.00045098,"MEAN_MOTION_DOT":0.00009897,"MEAN_MOTION_DDOT":0},{"OBJECT_NAME":"FLOCK 4H-26","OBJECT_ID":"2025-276BR","EPOCH":"2026-07-06T03:22:16.441248","CLASSIFICATION_TYPE":"U","MEAN_MOTION":15.19825956,"ECCENTRICITY":0.000336,"INCLINATION":97.418,"RA_OF_ASC_NODE":260.2434,"ARG_OF_PERICENTER":313.1787,"MEAN_ANOMALY":46.9166,"EPHEMERIS_TYPE":0,"NORAD_CAT_ID":66729,"ELEMENT_SET_NO":999,"REV_AT_EPOCH":3329,"BSTAR":0.00034758451,"MEAN_MOTION_DOT":0.00007384,"MEAN_MOTION_DDOT":0},{"OBJECT_NAME":"FLOCK 4H-27","OBJECT_ID":"2025-276BS","EPOCH":"2026-07-06T03:27:34.747488","CLASSIFICATION_TYPE":"U","MEAN_MOTION":15.20690345,"ECCENTRICITY":0.00011198,"INCLINATION":97.4156,"RA_OF_ASC_NODE":260.4764,"ARG_OF_PERICENTER":121.4452,"MEAN_ANOMALY":238.6894,"EPHEMERIS_TYPE":0,"NORAD_CAT_ID":66730,"ELEMENT_SET_NO":999,"REV_AT_EPOCH":3331,"BSTAR":0.00035207758,"MEAN_MOTION_DOT":0.00007671,"MEAN_MOTION_DDOT":0},{"OBJECT_NAME":"FLOCK 4H-29","OBJECT_ID":"2025-276BU","EPOCH":"2026-07-06T04:28:47.563104","CLASSIFICATION_TYPE":"U","MEAN_MOTION":15.19964188,"ECCENTRICITY":0.00021553,"INCLINATION":97.4158,"RA_OF_ASC_NODE":260.2719,"ARG_OF_PERICENTER":341.386,"MEAN_ANOMALY":18.7296,"EPHEMERIS_TYPE":0,"NORAD_CAT_ID":66732,"ELEMENT_SET_NO":999,"REV_AT_EPOCH":3330,"BSTAR":0.00033671739,"MEAN_MOTION_DOT":0.00007179,"MEAN_MOTION_DDOT":0},{"OBJECT_NAME":"FLOCK 4H-30","OBJECT_ID":"2025-276BV","EPOCH":"2026-07-06T04:18:10.975680","CLASSIFICATION_TYPE":"U","MEAN_MOTION":15.20087546,"ECCENTRICITY":0.00028378,"INCLINATION":97.422,"RA_OF_ASC_NODE":260.463,"ARG_OF_PERICENTER":316.9681,"MEAN_ANOMALY":43.1331,"EPHEMERIS_TYPE":0,"NORAD_CAT_ID":66733,"ELEMENT_SET_NO":999,"REV_AT_EPOCH":3330,"BSTAR":0.00033133855,"MEAN_MOTION_DOT":0.00007089,"MEAN_MOTION_DDOT":0},{"OBJECT_NAME":"FLOCK 4H-31","OBJECT_ID":"2025-276BW","EPOCH":"2026-07-06T04:46:29.365536","CLASSIFICATION_TYPE":"U","MEAN_MOTION":15.19867403,"ECCENTRICITY":0.00024648,"INCLINATION":97.4157,"RA_OF_ASC_NODE":260.2526,"ARG_OF_PERICENTER":332.1221,"MEAN_ANOMALY":27.9881,"EPHEMERIS_TYPE":0,"NORAD_CAT_ID":66734,"ELEMENT_SET_NO":999,"REV_AT_EPOCH":3330,"BSTAR":0.00033462388,"MEAN_MOTION_DOT":0.00007114,"MEAN_MOTION_DDOT":0},{"OBJECT_NAME":"FLOCK 4H-32","OBJECT_ID":"2025-276BX","EPOCH":"2026-07-06T04:30:05.445792","CLASSIFICATION_TYPE":"U","MEAN_MOTION":15.19985647,"ECCENTRICITY":0.00031389,"INCLINATION":97.4212,"RA_OF_ASC_NODE":260.4293,"ARG_OF_PERICENTER":311.2744,"MEAN_ANOMALY":48.8221,"EPHEMERIS_TYPE":0,"NORAD_CAT_ID":66735,"ELEMENT_SET_NO":999,"REV_AT_EPOCH":3330,"BSTAR":0.00031291952,"MEAN_MOTION_DOT":0.00006671,"MEAN_MOTION_DDOT":0}]}
