FLOCK 4H-15             
1 66718U 25276BE  26187.14392180  .00007649  00000+0  36016-3 0  9996
2 66718  97.4209 260.3210 0003006 324.7832  35.3204 15.19805588 33297
FLOCK 4H-16             
1 66719U 25276BF  26187.18404751  .00007374  00000+0  34470-3 0  9996
2 66719  97.4224 260.4654 0002783 307.0412  53.0568 15.20071285 33300
FLOCK 4H-18             
1 66721U 25276BH  26187.18986973  .00007333  00000+0  34334-3 0  9994
2 66721  97.4166 260.2924 0002762 342.5190  17.5950 15.20014079 33308
FLOCK 4H-19             
1 66722U 25276BJ  26187.19622512  .00005735  00000+0  26005-3 0  9992
2 66722  97.4167 260.7450 0001614 165.1309 194.9974 15.21218839 32626
FLOCK 4H-20             
1 66723U 25276BK  26187.13351937  .00007269  00000+0  32730-3 0  9993
2 66723  97.4207 260.7830 0001958 198.8757 161.2406 15.21369082 32573
FLOCK 4H-21             
1 66724U 25276BL  26187.16241819  .00007118  00000+0  32447-3 0  9992
2 66724  97.4171 260.6447 0001742 198.5419 161.5753 15.20953482 32570
FLOCK 4H-22             
1 66725U 25276BM  26187.20393714  .00008083  00000+0  37352-3 0  9992
2 66725  97.4163 260.4045 0001672 356.5078   3.6146 15.20439701 33311
FLOCK 4H-23             
1 66726U 25276BN  26187.18908053  .00006919  00000+0  32437-3 0  9993
2 66726  97.4227 260.4720 0002819 294.8017  65.2925 15.19992953 33303
FLOCK 4H-24             
1 66727U 25276BP  26187.17450958  .00007185  00000+0  33570-3 0  9994
2 66727  97.4227 260.4858 0002600 319.0585  41.0455 15.20098950 33300
FLOCK 4H-25             
1 66728U 25276BQ  26186.19347247  .00009897  00000+0  45098-3 0  9992
2 66728  97.4185 259.6819 0001400 129.0485 231.0875 15.20860103 32455
FLOCK 4H-26             
1 66729U 25276BR  26187.14046807  .00007384  00000+0  34758-3 0  9997
2 66729  97.4180 260.2434 0003360 313.1787  46.9166 15.19825956 33294
FLOCK 4H-27             
1 66730U 25276BS  26187.14415217  .00007671  00000+0  35208-3 0  9994
2 66730  97.4156 260.4764 0001119 121.4452 238.6894 15.20690345 33311
FLOCK 4H-29             
1 66732U 25276BU  26187.18666161  .00007179  00000+0  33672-3 0  9992
2 66732  97.4158 260.2719 0002155 341.3860  18.7296 15.19964188 33309
FLOCK 4H-30             
1 66733U 25276BV  26187.17929370  .00007089  00000+0  33134-3 0  9999
2 66733  97.4220 260.4630 0002837 316.9681  43.1331 15.20087546 33308
FLOCK 4H-31             
1 66734U 25276BW  26187.19895099  .00007114  00000+0  33462-3 0  9995
2 66734  97.4157 260.2526 0002464 332.1221  27.9881 15.19867403 33302
FLOCK 4H-32             
1 66735U 25276BX  26187.18756303  .00006671  00000+0  31292-3 0  9995
2 66735  97.4212 260.4293 0003138 311.2744  48.8221 15.19985647 33306
